{
  "type": "FeatureCollection",
  "features": [
    {
      "type": "Feature",
      "properties": {
        "norad_id": 34814,
        "name": "COSMOS 2251 DEB",
        "group": "cosmos-2251-debris",
        "lat": 73.65210879928216,
        "lon": 74.91350322318281,
        "alt_km": 788.7275783519735,
        "timestamp": "2025-12-07T14:37:05.598762+00:00",
        "meta_object_name": "COSMOS 2251 DEB",
        "meta_object_id": "1993-036ABD",
        "meta_epoch": "2025-12-06T06:32:24.978912",
        "meta_mean_motion": 14.36849213,
        "meta_eccentricity": 0.00566347,
        "meta_inclination": 73.8955,
        "meta_ra_of_asc_node": 337.4307,
        "meta_arg_of_pericenter": 228.0837,
        "meta_mean_anomaly": 154.2293,
        "meta_ephemeris_type": 0,
        "meta_classification_type": "U",
        "meta_norad_cat_id": 34814,
        "meta_element_set_no": 999,
        "meta_rev_at_epoch": 87240,
        "meta_bstar": 0.0014993778,
        "meta_mean_motion_dot": 4.489e-05,
        "meta_mean_motion_ddot": 0,
        "tle_line1": "1 34814U 93036ABD 25340.27251133  .00004489  00000+0  14994-2 0  9992",
        "tle_line2": "2 34814  73.8955 337.4307 0056634 228.0837 154.2293 14.36849213872408"
      },
      "geometry": {
        "type": "Point",
        "coordinates": [
          74.91350322318281,
          73.65210879928216
        ]
      }
    },
    {
      "type": "Feature",
      "properties": {
        "norad_id": 34815,
        "name": "COSMOS 2251 DEB",
        "group": "cosmos-2251-debris",
        "lat": -23.654957127016196,
        "lon": 79.07231619189919,
        "alt_km": 659.031700707038,
        "timestamp": "2025-12-07T14:37:05.598773+00:00",
        "meta_object_name": "COSMOS 2251 DEB",
        "meta_object_id": "1993-036ABE",
        "meta_epoch": "2025-12-06T21:26:54.706272",
        "meta_mean_motion": 14.78188857,
        "meta_eccentricity": 0.00589396,
        "meta_inclination": 74.0461,
        "meta_ra_of_asc_node": 253.2776,
        "meta_arg_of_pericenter": 323.6265,
        "meta_mean_anomaly": 36.091,
        "meta_ephemeris_type": 0,
        "meta_classification_type": "U",
        "meta_norad_cat_id": 34815,
        "meta_element_set_no": 999,
        "meta_rev_at_epoch": 88541,
        "meta_bstar": 0.0016451921,
        "meta_mean_motion_dot": 0.00012263,
        "meta_mean_motion_ddot": 0,
        "tle_line1": "1 34815U 93036ABE 25340.89368873  .00012263  00000+0  16452-2 0  9991",
        "tle_line2": "2 34815  74.0461 253.2776 0058939 323.6265  36.0910 14.78188857885410"
      },
      "geometry": {
        "type": "Point",
        "coordinates": [
          79.07231619189919,
          -23.654957127016196
        ]
      }
    },
    {
      "type": "Feature",
      "properties": {
        "norad_id": 34816,
        "name": "COSMOS 2251 DEB",
        "group": "cosmos-2251-debris",
        "lat": -28.309134530231088,
        "lon": -19.54820021226075,
        "alt_km": 772.1167134181878,
        "timestamp": "2025-12-07T14:37:05.598782+00:00",
        "meta_object_name": "COSMOS 2251 DEB",
        "meta_object_id": "1993-036ABF",
        "meta_epoch": "2025-12-06T06:38:33.487872",
        "meta_mean_motion": 13.58296174,
        "meta_eccentricity": 0.03736457,
        "meta_inclination": 73.886,
        "meta_ra_of_asc_node": 153.667,
        "meta_arg_of_pericenter": 219.2558,
        "meta_mean_anomaly": 318.307,
        "meta_ephemeris_type": 0,
        "meta_classification_type": "U",
        "meta_norad_cat_id": 34816,
        "meta_element_set_no": 999,
        "meta_rev_at_epoch": 82695,
        "meta_bstar": 0.001873391,
        "meta_mean_motion_dot": 2.123e-05,
        "meta_mean_motion_ddot": 0,
        "tle_line1": "1 34816U 93036ABF 25340.27677648  .00002123  00000+0  18734-2 0  9996",
        "tle_line2": "2 34816  73.8860 153.6670 0373645 219.2558 318.3070 13.58296174826952"
      },
      "geometry": {
        "type": "Point",
        "coordinates": [
          -19.54820021226075,
          -28.309134530231088
        ]
      }
    },
    {
      "type": "Feature",
      "properties": {
        "norad_id": 34818,
        "name": "COSMOS 2251 DEB",
        "group": "cosmos-2251-debris",
        "lat": 15.683416127945923,
        "lon": 121.76329099013668,
        "alt_km": 782.0498808657476,
        "timestamp": "2025-12-07T14:37:05.598793+00:00",
        "meta_object_name": "COSMOS 2251 DEB",
        "meta_object_id": "1993-036ABH",
        "meta_epoch": "2025-12-06T23:05:29.246784",
        "meta_mean_motion": 14.36954587,
        "meta_eccentricity": 0.00238961,
        "meta_inclination": 74.0354,
        "meta_ra_of_asc_node": 307.5625,
        "meta_arg_of_pericenter": 24.6801,
        "meta_mean_anomaly": 33.3633,
        "meta_ephemeris_type": 0,
        "meta_classification_type": "U",
        "meta_norad_cat_id": 34818,
        "meta_element_set_no": 999,
        "meta_rev_at_epoch": 87287,
        "meta_bstar": 0.00040038731,
        "meta_mean_motion_dot": 1.164e-05,
        "meta_mean_motion_ddot": 0,
        "tle_line1": "1 34818U 93036ABH 25340.96214406  .00001164  00000+0  40039-3 0  9991",
        "tle_line2": "2 34818  74.0354 307.5625 0023896  24.6801  33.3633 14.36954587872871"
      },
      "geometry": {
        "type": "Point",
        "coordinates": [
          121.76329099013668,
          15.683416127945923
        ]
      }
    },
    {
      "type": "Feature",
      "properties": {
        "norad_id": 34819,
        "name": "COSMOS 2251 DEB",
        "group": "cosmos-2251-debris",
        "lat": -52.67699288374925,
        "lon": 130.43981261685803,
        "alt_km": 681.5094226311385,
        "timestamp": "2025-12-07T14:37:05.598803+00:00",
        "meta_object_name": "COSMOS 2251 DEB",
        "meta_object_id": "1993-036ABJ",
        "meta_epoch": "2025-12-05T18:41:04.482240",
        "meta_mean_motion": 14.63801397,
        "meta_eccentricity": 0.00159335,
        "meta_inclination": 74.0166,
        "meta_ra_of_asc_node": 156.0388,
        "meta_arg_of_pericenter": 249.6845,
        "meta_mean_anomaly": 131.7067,
        "meta_ephemeris_type": 0,
        "meta_classification_type": "U",
        "meta_norad_cat_id": 34819,
        "meta_element_set_no": 999,
        "meta_rev_at_epoch": 88127,
        "meta_bstar": 0.0025651513,
        "meta_mean_motion_dot": 0.00013406,
        "meta_mean_motion_ddot": 0,
        "tle_line1": "1 34819U 93036ABJ 25339.77852410  .00013406  00000+0  25652-2 0  9997",
        "tle_line2": "2 34819  74.0166 156.0388 0015933 249.6845 131.7067 14.63801397881274"
      },
      "geometry": {
        "type": "Point",
        "coordinates": [
          130.43981261685803,
          -52.67699288374925
        ]
      }
    },
    {
      "type": "Feature",
      "properties": {
        "norad_id": 34823,
        "name": "COSMOS 2251 DEB",
        "group": "cosmos-2251-debris",
        "lat": 22.638312287484556,
        "lon": -74.8611825108374,
        "alt_km": 626.149140100003,
        "timestamp": "2025-12-07T14:37:05.598813+00:00",
        "meta_object_name": "COSMOS 2251 DEB",
        "meta_object_id": "1993-036ABN",
        "meta_epoch": "2025-12-05T15:41:05.224416",
        "meta_mean_motion": 14.54842007,
        "meta_eccentricity": 0.0155335,
        "meta_inclination": 74.0406,
        "meta_ra_of_asc_node": 115.6932,
        "meta_arg_of_pericenter": 202.2054,
        "meta_mean_anomaly": 157.2336,
        "meta_ephemeris_type": 0,
        "meta_classification_type": "U",
        "meta_norad_cat_id": 34823,
        "meta_element_set_no": 999,
        "meta_rev_at_epoch": 88278,
        "meta_bstar": 0.0016605928,
        "meta_mean_motion_dot": 8.358e-05,
        "meta_mean_motion_ddot": 0,
        "tle_line1": "1 34823U 93036ABN 25339.65353269  .00008358  00000+0  16606-2 0  9996",
        "tle_line2": "2 34823  74.0406 115.6932 0155335 202.2054 157.2336 14.54842007882782"
      },
      "geometry": {
        "type": "Point",
        "coordinates": [
          -74.8611825108374,
          22.638312287484556
        ]
      }
    },
    {
      "type": "Feature",
      "properties": {
        "norad_id": 34845,
        "name": "COSMOS 2251 DEB",
        "group": "cosmos-2251-debris",
        "lat": -62.711033527016426,
        "lon": 124.19288409392009,
        "alt_km": 732.0247462367688,
        "timestamp": "2025-12-07T14:37:05.598823+00:00",
        "meta_object_name": "COSMOS 2251 DEB",
        "meta_object_id": "1993-036ABP",
        "meta_epoch": "2025-12-06T20:39:44.498880",
        "meta_mean_motion": 14.45840462,
        "meta_eccentricity": 0.00221763,
        "meta_inclination": 74.0235,
        "meta_ra_of_asc_node": 159.3219,
        "meta_arg_of_pericenter": 321.0839,
        "meta_mean_anomaly": 38.8721,
        "meta_ephemeris_type": 0,
        "meta_classification_type": "U",
        "meta_norad_cat_id": 34845,
        "meta_element_set_no": 999,
        "meta_rev_at_epoch": 87381,
        "meta_bstar": 0.00047598177,
        "meta_mean_motion_dot": 1.668e-05,
        "meta_mean_motion_ddot": 0,
        "tle_line1": "1 34845U 93036ABP 25340.86093170  .00001668  00000+0  47598-3 0  9999",
        "tle_line2": "2 34845  74.0235 159.3219 0022176 321.0839  38.8721 14.45840462873815"
      },
      "geometry": {
        "type": "Point",
        "coordinates": [
          124.19288409392009,
          -62.711033527016426
        ]
      }
    }
  ]
}